NORAD_CAT_ID,OBJECT_NAME,OBJECT_TYPE,EPOCH,MEAN_MOTION,ECCENTRICITY,INCLINATION,RA_OF_ASC_NODE,ARG_OF_PERICENTER,MEAN_ANOMALY,BSTAR,MEAN_MOTION_DOT,MEAN_MOTION_DDOT,TLE_LINE0,TLE_LINE1,TLE_LINE2,SEMIMAJOR_AXIS,PERIOD,APOGEE,PERIGEE,DECAYED
55780.0,STARLINK-5819,PAYLOAD,2023-09-12 23:53:05,14.98290721,0.0002743,70.0028,355.427,276.2458,83.8388,0.000808,9.551e-05,0.0,0 STARLINK-5819,1 55780U 23028AR  23255.99520625  .00009551  00000-0  80800-3 0  9994,2 55780  70.0028 355.4270 0002743 276.2458  83.8388 14.98290721 30420,6950.314,96.11,574.086,570.273,0.0
55780.0,STARLINK-5819,PAYLOAD,2023-09-13 09:29:52,14.98338958,0.0003002,70.0026,354.4173,266.0123,94.0693,7.6713e-05,8.23e-06,0.0,0 STARLINK-5819,1 55780U 23028AR  23256.39574750  .00000823  00000-0  76713-4 0  9999,2 55780  70.0026 354.4173 0003002 266.0123  94.0693 14.98338958 30488,6950.165,96.106,574.117,569.944,0.0
55780.0,STARLINK-5819,PAYLOAD,2023-09-13 12:42:08,14.98338562,0.0003009,70.0026,354.0807,265.8859,94.1956,6.9803e-05,7.4e-06,0.0,0 STARLINK-5819,1 55780U 23028AR  23256.52926720  .00000740  00000-0  69803-4 0  9992,2 55780  70.0026 354.0807 0003009 265.8859  94.1956 14.98338562 30505,6950.166,96.106,574.123,569.94,0.0
55780.0,STARLINK-5819,PAYLOAD,2023-09-13 17:30:32,14.98343126,0.0003007,70.0026,353.5756,267.3248,92.7567,0.00013624,1.534e-05,0.0,0 STARLINK-5819,1 55780U 23028AR  23256.72954128  .00001534  00000-0  13624-3 0  9998,2 55780  70.0026 353.5756 0003007 267.3248  92.7567 14.98343126 30536,6950.152,96.106,574.107,569.927,0.0
55780.0,STARLINK-5819,PAYLOAD,2023-09-14 09:31:54,14.98320184,0.0002638,70.0024,351.8928,244.7033,115.3853,-5.8834e-05,-7.95e-06,0.0,0 STARLINK-5819,1 55780U 23028AR  23257.39716265 -.00000795  00000-0 -58834-4 0  9993,2 55780  70.0024 351.8928 0002638 244.7033 115.3853 14.98320184 30636,6950.223,96.108,573.922,570.255,0.0
55780.0,STARLINK-5819,PAYLOAD,2023-09-14 12:44:11,14.9831447,0.0002673,70.0034,351.5567,238.0373,122.0527,-0.00011439,-1.457e-05,0.0,0 STARLINK-5819,1 55780U 23028AR  23257.53068853 -.00001457  00000-0 -11439-3 0  9997,2 55780  70.0034 351.5567 0002673 238.0373 122.0527 14.98314470 30651,6950.241,96.108,573.964,570.248,0.0
55780.0,STARLINK-5819,PAYLOAD,2023-09-14 15:56:28,14.98311329,0.0003141,70.0023,351.22,268.6327,91.4472,-0.00018274,-2.272e-05,0.0,0 STARLINK-5819,1 55780U 23028AR  23257.66421498 -.00002272  00000-0 -18274-3 0  9999,2 55780  70.0023 351.2200 0003141 268.6327  91.4472 14.98311329 30679,6950.251,96.108,574.299,569.933,0.0
55780.0,STARLINK-5819,PAYLOAD,2023-09-14 23:57:08,14.9831918,0.0003333,70.0018,350.3766,273.216,86.8618,-0.00014007,-1.763e-05,0.0,0 STARLINK-5819,1 55780U 23028AR  23257.99801166 -.00001763  00000-0 -14007-3 0  9993,2 55780  70.0018 350.3766 0003333 273.2160  86.8618 14.98319180 30729,6950.226,96.108,574.408,569.775,0.0
55780.0,STARLINK-5819,PAYLOAD,2023-09-15 12:46:12,14.98325858,0.0003365,70.0019,349.0313,275.7415,84.336,-8.4822e-05,-1.105e-05,0.0,0 STARLINK-5819,1 55780U 23028AR  23258.53208840 -.00001105  00000-0 -84822-4 0  9997,2 55780  70.0019 349.0313 0003365 275.7415  84.3360 14.98325858 30803,6950.206,96.107,574.409,569.732,0.0
55780.0,STARLINK-5819,PAYLOAD,2023-09-15 15:58:28,14.98332588,0.0003421,70.0016,348.6938,274.9401,85.1368,-3.4498e-05,-5.05e-06,0.0,0 STARLINK-5819,1 55780U 23028AR  23258.66560329 -.00000505  00000-0 -34498-4 0  9991,2 55780  70.0016 348.6938 0003421 274.9401  85.1368 14.98332588 30824,6950.185,96.107,574.428,569.672,0.0
55780.0,STARLINK-5819,PAYLOAD,2023-09-16 12:48:12,14.98330521,0.0003459,70.0015,346.5056,276.6161,83.4604,0.00031315,3.646e-05,0.0,0 STARLINK-5819,1 55780U 23028AR  23259.53347645  .00003646  00000-0  31315-3 0  9993,2 55780  70.0015 346.5056 0003459 276.6161  83.4604 14.98330521 30957,6950.191,96.107,574.46,569.652,0.0
55780.0,STARLINK-5819,PAYLOAD,2023-09-16 16:00:28,14.98334259,0.0003444,70.0016,346.1691,276.9802,83.0965,0.00034469,4.023e-05,0.0,0 STARLINK-5819,1 55780U 23028AR  23259.66699323  .00004023  00000-0  34469-3 0  9993,2 55780  70.0016 346.1691 0003444 276.9802  83.0965 14.98334259 30978,6950.18,96.107,574.438,569.651,0.0
55780.0,STARLINK-5819,PAYLOAD,2023-09-17 12:50:13,14.98331662,0.0002746,70.0033,343.9831,265.7346,94.3499,0.00010242,1.129e-05,0.0,0 STARLINK-5819,1 55780U 23028AR  23260.53488019  .00001129  00000-0  10242-3 0  9996,2 55780  70.0033 343.9831 0002746 265.7346  94.3499 14.98331662 31109,6950.188,96.107,573.961,570.144,0.0
55780.0,STARLINK-5819,PAYLOAD,2023-09-18 09:39:58,14.98335912,0.0003105,70.0023,341.7933,270.2406,89.8397,-9.4316e-05,-1.218e-05,0.0,0 STARLINK-5819,1 55780U 23028AR  23261.40275868 -.00001218  00000-0 -94316-4 0  9995,2 55780  70.0023 341.7933 0003105 270.2406  89.8397 14.98335912 31237,6950.175,96.107,574.198,569.882,0.0
55780.0,STARLINK-5819,PAYLOAD,2023-09-18 12:52:14,14.98336511,0.0003023,70.0022,341.4566,267.4733,92.608,-8.0529e-05,-1.054e-05,0.0,0 STARLINK-5819,1 55780U 23028AR  23261.53627718 -.00001054  00000-0 -80529-4 0  9993,2 55780  70.0022 341.4566 0003023 267.4733  92.6080 14.98336511 31254,6950.173,96.107,574.139,569.937,0.0
55780.0,STARLINK-5819,PAYLOAD,2023-09-18 14:28:22,14.98338188,0.0002983,70.0022,341.2885,266.0787,94.0031,-5.5386e-05,-7.54e-06,0.0,0 STARLINK-5819,1 55780U 23028AR  23261.60303501 -.00000754  00000-0 -55386-4 0  9991,2 55780  70.0022 341.2885 0002983 266.0787  94.0031 14.98338188 31269,6950.168,96.106,574.106,569.959,0.0
55780.0,STARLINK-5819,PAYLOAD,2023-09-19 09:42:00,14.98320318,0.000316,70.0019,339.2685,269.3637,90.716,-0.00013773,-1.736e-05,0.0,0 STARLINK-5819,1 55780U 23028AR  23262.40416705 -.00001736  00000-0 -13773-3 0  9995,2 55780  70.0019 339.2685 0003160 269.3637  90.7160 14.98320318 31383,6950.223,96.108,574.284,569.892,0.0
55780.0,STARLINK-5819,PAYLOAD,2023-09-19 14:30:24,14.98324386,0.0003005,70.0018,338.7646,267.3633,92.7182,-9.5546e-05,-1.233e-05,0.0,0 STARLINK-5819,1 55780U 23028AR  23262.60444462 -.00001233  00000-0 -95546-4 0  9999,2 55780  70.0018 338.7646 0003005 267.3633  92.7182 14.98324386 31414,6950.21,96.107,574.164,569.987,0.0
55780.0,STARLINK-5819,PAYLOAD,2023-09-20 09:44:00,14.983292,0.0003102,70.0016,336.7441,269.0991,90.9813,3.5944e-05,3.36e-06,0.0,0 STARLINK-5819,1 55780U 23028AR  23263.40555890  .00000336  00000-0  35944-4 0  9993,2 55780  70.0016 336.7441 0003102 269.0991  90.9813 14.98329200 31531,6950.195,96.107,574.216,569.904,0.0
55780.0,STARLINK-5819,PAYLOAD,2023-09-20 14:32:24,14.98331937,0.0003117,70.0014,336.2387,269.6918,90.3884,5.359e-05,5.47e-06,0.0,0 STARLINK-5819,1 55780U 23028AR  23263.60583680  .00000547  00000-0  53590-4 0  9994,2 55780  70.0014 336.2387 0003117 269.6918  90.3884 14.98331937 31569,6950.187,96.107,574.218,569.886,0.0
55780.0,STARLINK-5819,PAYLOAD,2023-09-21 09:46:01,14.98314939,0.0003102,70.0012,334.2181,269.5299,90.5504,0.00022371,2.576e-05,0.0,0 STARLINK-5819,1 55780U 23028AR  23264.40696552  .00002576  00000-0  22371-3 0  9992,2 55780  70.0012 334.2181 0003102 269.5299  90.5504 14.98314939 31689,6950.239,96.108,574.26,569.949,0.0
55780.0,STARLINK-5819,PAYLOAD,2023-09-21 12:58:17,14.98324664,0.0003059,70.0012,333.8825,264.629,95.452,0.00010468,1.156e-05,0.0,0 STARLINK-5819,1 55780U 23028AR  23264.54048195  .00001156  00000-0  10468-3 0  9998,2 55780  70.0012 333.8825 0003059 264.6290  95.4520 14.98324664 31708,6950.209,96.107,574.2,569.948,0.0
55780.0,STARLINK-5819,PAYLOAD,2023-09-21 14:34:25,14.98324668,0.0003087,70.0012,333.7141,266.0391,94.0416,0.00011376,1.264e-05,0.0,0 STARLINK-5819,1 55780U 23028AR  23264.60724199  .00001264  00000-0  11376-3 0  9999,2 55780  70.0012 333.7141 0003087 266.0391  94.0416 14.98324668 31711,6950.209,96.107,574.22,569.929,0.0
55780.0,STARLINK-5819,PAYLOAD,2023-09-21 22:35:06,14.98308404,0.0003037,70.0009,332.8713,273.866,86.2152,0.00049527,5.818e-05,0.0,0 STARLINK-5819,1 55780U 23028AR  23264.94104581  .00005818  00000-0  49527-3 0  9991,2 55780  70.0009 332.8713 0003037 273.8660  86.2152 14.98308404 31767,6950.26,96.108,574.235,570.014,0.0
55780.0,STARLINK-5819,PAYLOAD,2023-09-22 09:48:01,14.98335925,0.000295,70.0011,331.6936,266.5456,93.5366,8.1474e-05,8.79e-06,0.0,0 STARLINK-5819,1 55780U 23028AR  23265.40835535  .00000879  00000-0  81474-4 0  9993,2 55780  70.0011 331.6936 0002950 266.5456  93.5366 14.98335925 31833,6950.175,96.107,574.09,569.989,0.0
55780.0,STARLINK-5819,PAYLOAD,2023-09-22 13:00:17,14.98339142,0.0002959,70.001,331.3567,267.0028,93.0793,0.0001062,1.175e-05,0.0,0 STARLINK-5819,1 55780U 23028AR  23265.54187204  .00001175  00000-0  10620-3 0  9995,2 55780  70.0010 331.3567 0002959 267.0028  93.0793 14.98339142 31855,6950.165,96.106,574.086,569.973,0.0
55780.0,STARLINK-5819,PAYLOAD,2023-09-22 14:36:25,14.98340841,0.0003005,70.001,331.1882,266.0937,93.9878,0.00012187,1.362e-05,0.0,0 STARLINK-5819,1 55780U 23028AR  23265.60863008  .00001362  00000-0  12187-3 0  9993,2 55780  70.0010 331.1882 0003005 266.0937  93.9878 14.98340841 31866,6950.159,96.106,574.113,569.936,0.0
55780.0,STARLINK-5819,PAYLOAD,2023-09-23 13:02:18,14.98332957,0.0002809,70.0017,328.8337,257.0022,103.0824,7.3669e-05,7.86e-06,0.0,0 STARLINK-5819,1 55780U 23028AR  23266.54327271  .00000786  00000-0  73669-4 0  9996,2 55780  70.0017 328.8337 0002809 257.0022 103.0824 14.98332957 32007,6950.184,96.107,574.001,570.096,0.0
55780.0,STARLINK-5819,PAYLOAD,2023-09-24 09:52:05,14.98270754,0.0003264,70.0016,326.6459,258.4662,101.613,0.0010578,0.00012532,0.0,0 STARLINK-5819,1 55780U 23028AR  23267.41116966  .00012532  00000-0  10578-2 0  9990,2 55780  70.0016 326.6459 0003264 258.4662 101.6130 14.98270754 32132,6950.376,96.111,574.51,569.973,0.0
55780.0,STARLINK-5819,PAYLOAD,2023-09-24 13:04:19,14.98333863,0.0002765,70.0016,326.3095,255.7735,104.3117,-2.7669e-05,-4.23e-06,0.0,0 STARLINK-5819,1 55780U 23028AR  23267.54467187 -.00000423  00000-0 -27669-4 0  9997,2 55780  70.0016 326.3095 0002765 255.7735 104.3117 14.98333863 32159,6950.181,96.107,573.968,570.124,0.0
